C/2021 A7 (NEOWISE),e,78.1539,154.5020,356.0087,2293,0.0000090,0.99914258,0.0000,07/15.1897/2021,2000,g 10.0,4.0
# From MPEC 2023-K53
C/2021 A9 (PANSTARRS),h,12/01.6492/2023,158.0176,314.8403,211.4617,1.002076,7.760087,2000,6.0,4.0
# From MPEC 2021-N06
C/2021 A10 (NEOWISE),e,151.9279,188.6848,82.3694,87.76354,0.0011988,0.98561532,0.0000,03/15.0569/2021,2000,g 19.0,4.0
# From MPEC 2022-L66
C/2021 B2 (PANSTARRS),e,38.0849,120.5208,334.9812,363.0527,0.0001425,0.99308114,0.0000,05/04.3792/2021,2000,g 14.0,4.0
# From MPEC 2021-N06
C/2021 B3 (NEOWISE),e,119.4813,67.2853,293.5389,34.46949,0.0048703,0.93730755,3.9034,05/21.0/2023,2000,g 13.5,4.0
# From MPEC 2023-K53
C/2021 C1 (Rankin),e,143.0448,186.8961,336.2306,8052,0.0000014,0.99956813,0.0000,12/06.9061/2020,2000,g 11.5,4.0
# From MPEC 2021-U31
P/2021 C2 (PANSTARRS),e,21.9356,66.4606,78.7233,9.534853,0.0334760,0.48741301,27.3296,05/21.0/2023,2000,g 12.0,4.0
# From MPEC 2021-N06
C/2021 C3 (Catalina),e,122.1657,181.9237,357.0723,61.89769,0.0020239,0.96325645,1.6755,05/21.0/2023,2000,g 14.0,4.0
# From MPEC 2022-M88
C/2021 C4 (ATLAS),e,132.8532,194.2771,320.1918,139405,0.0000000,0.99996771,0.0000,01/17.0154/2021,2000,g  9.0,4.0
# From MPEC 2023-J95
C/2021 C5 (PANSTARRS),e,50.7819,323.6806,270.9230,2332,0.0000088,0.99860983,0.0000,02/11.0740/2023,2000,g  9.0,4.0
# From MPEC 2022-YB4
C/2021 C6 (Lemmon),h,11/13.3335/2021,164.6239,332.1840,203.6397,1.001123,3.273979,2000,12.0,4.0
# From MPEC 2022-F14
C/2021 D1 (SWAN),e,31.4256,311.2336,72.2950,100.3256,0.0009808,0.99100442,0.0000,02/27.7453/2021,2000,g 13.0,4.0
# From MPEC 2023-J29
C/2021 D2 (ZTF),h,02/03.9792/2022,83.8141,305.6771,125.0276,1.001697,2.946285,2000,9.0,4.0
# From MPEC 2022-UY9
A/2021 E2,e,167.4884,190.8188,342.3807,224.2579,0.0002935,0.98981224,0.0000,12/10.3566/2020,2000,g 15.0,2.0
# From MPEC 2023-J29
C/2021 E3 (ZTF),h,06/11.8964/2022,112.5492,104.4765,228.8490,1.000841,1.777343,2000,8.5,4.0
# From MPEC 2022-UY9
A/2021 E4,e,116.3610,171.1697,48.2622,587.8524,0.0000692,0.99204560,0.0000,04/25.1700/2022,2000,g 13.5,2.0
# From MPEC 2022-QD9
C/2021 F1 (Lemmon-PANSTARRS),e,107.3263,203.4539,146.8281,229.1753,0.0002841,0.99565481,0.0000,04/06.8343/2022,2000,g 13.5,4.0
# From MPEC 2021-J72
C/2021 G1 (Leonard),e,131.5482,270.6989,107.4518,73.94768,0.0015499,0.95370610,1.0354,05/21.0/2023,2000,g 14.0,4.0
# From MPEC 2023-K53
C/2021 G2 (ATLAS),e,48.4739,221.0963,343.3239,7592,0.0000015,0.99934382,0.0000,09/09.6003/2024,2000,g  5.5,4.0
# From MPEC 2022-X67
C/2021 G3 (PANSTARRS),h,10/18.1668/2021,102.8738,147.4055,10.6002,1.000165,5.180231,2000,10.5,4.0
# From MPEC 2021-Y10
P/2021 HS (PANSTARRS),e,12.1627,262.3812,46.1195,4.194580,0.1147285,0.80983922,74.8927,05/21.0/2023,2000,g 22.0,4.0
# From MPEC 2022-C56
C/2021 J1 (Maury-Attard),e,92.7207,88.3660,147.3202,26.37965,0.0072745,0.93401899,5.9695,05/21.0/2023,2000,g 15.5,4.0
# From MPEC 2023-K53
C/2021 J2 (PANSTARRS),e,156.2131,23.3350,172.0181,117.4062,0.0007748,0.95992576,0.4694,05/21.0/2023,2000,g 12.0,4.0
# From MPEC 2021-S45
P/2021 J3 (ATLAS),e,14.5319,111.1497,126.0059,8.930273,0.0369324,0.44922633,52.3360,05/21.0/2023,2000,g  7.0,4.0
# From MPEC 2022-O08
C/2021 K1 (ATLAS),e,16.2753,140.9064,184.2782,12.66919,0.0218565,0.80276806,16.3223,05/21.0/2023,2000,g 11.0,4.0
# From MPEC 2022-O01
C/2021 K2 (MASTER),h,09/09.4704/2021,100.8608,282.2540,343.3614,1.001088,5.467871,2000,8.0,4.0
# From MPEC 2022-L66
C/2021 K3 (Catalina),h,02/03.1517/2022,134.7834,114.4618,182.0527,1.003397,5.230003,2000,10.0,4.0
# From MPEC 2021-W31
P/2021 L2 (Leonard),e,21.0683,266.6571,51.5094,4.048968,0.1209728,0.52111416,80.5382,05/21.0/2023,2000,g 17.0,4.0
# From MPEC 2023-K53
C/2021 L3 (Borisov),h,02/14.1450/2022,78.5766,344.9788,91.6136,1.003451,8.457999,2000,6.0,4.0
# From MPEC 2022-TA0
P/2021 N1 (ZTF),e,11.4972,301.1622,21.2264,2.978011,0.1917850,0.67637221,136.8578,05/21.0/2023,2000,g 19.0,4.0
# From MPEC 2023-J29
P/2021 N2 (Fuls),e,13.0614,221.7357,177.4512,6.938001,0.0539327,0.45257143,29.8311,05/21.0/2023,2000,g  9.5,4.0
# From MPEC 2022-YB4
C/2021 N3 (PANSTARRS),e,26.7409,337.4934,304.7607,151.7906,0.0005270,0.96233706,0.5295,05/21.0/2023,2000,g  8.5,4.0
# From MPEC 2022-A21
C/2021 O1 (Nishimura),e,27.5877,41.6204,74.3963,2382,0.0000085,0.99967023,0.0000,08/14.0236/2021,2000,g 10.5,4.0
# From MPEC 2022-L66
C/2021 O3 (PANSTARRS),h,04/21.0515/2022,56.7942,189.0123,299.9685,1.000062,0.287002,2000,10.5,4.0
# From MPEC 2022-CN4
C/2021 P1 (PANSTARRS),e,51.6367,359.6776,40.4631,2518,0.0000078,0.99826274,0.0000,06/02.3825/2022,2000,g 11.0,4.0
# From MPEC 2023-K53
C/2021 P2 (PANSTARRS),e,150.0635,32.0803,76.6971,2628,0.0000073,0.99807082,0.0000,01/22.7561/2023,2000,g  9.0,4.0
# From MPEC 2021-W31
P/2021 P3 (PANSTARRS),e,27.1616,358.2401,334.0930,4.412430,0.1063377,0.33908282,76.6550,05/21.0/2023,2000,g 14.0,4.0
# From MPEC 2023-A50
C/2021 P4 (ATLAS),e,56.3114,348.0903,175.8100,310.4685,0.0001802,0.99652041,0.0000,07/30.3544/2022,2000,g  9.5,4.0
# From MPEC 2023-E68
P/2021 PE20 (ATLAS),e,20.0093,99.6316,210.4662,3.745699,0.1359580,0.67032659,96.9435,05/21.0/2023,2000,g 17.0,4.0
# From MPEC 2023-FK0
C/2021 Q3 (ATLAS),e,77.7610,307.9130,114.1017,75.62441,0.0014987,0.93117485,0.7190,05/21.0/2023,2000,g  8.0,4.0
# From MPEC 2023-K53
C/2021 Q4 (Fuls),h,06/10.5690/2023,71.4749,183.3321,147.0073,1.003186,7.564606,2000,6.0,4.0
# From MPEC 2022-C56
P/2021 Q5 (ATLAS),e,10.7385,239.7499,180.9243,3.286669,0.1654132,0.62453120,103.9481,05/21.0/2023,2000,g 15.0,4.0
# From MPEC 2023-CD7
C/2021 Q6 (PANSTARRS),e,161.8470,133.5368,140.9598,92602,0.0000000,0.99990596,0.0000,03/23.9265/2024,2000,g  6.0,4.0
# From MPEC 2023-FK0
C/2021 QM45 (PANSTARRS),e,22.8217,354.5909,72.8221,364.8953,0.0001414,0.99239911,0.0000,08/13.5036/2022,2000,g 11.0,4.0
# From MPEC 2022-X67
P/2021 R1 (PANSTARRS),e,5.5190,143.3348,220.3391,8.336990,0.0409440,0.41393431,21.3082,05/21.0/2023,2000,g 11.0,4.0
# From MPEC 2022-X67
C/2021 R2 (PANSTARRS),e,134.4819,16.2971,32.4443,2611,0.0000074,0.99719926,0.0000,12/26.9056/2021,2000,g  7.5,4.0
# From MPEC 2021-W31
P/2021 R3 (PANSTARRS),e,19.9289,304.2009,2.7754,3.772306,0.1345221,0.33110246,97.5311,05/21.0/2023,2000,g 16.0,4.0
# From MPEC 2021-W31
P/2021 R4 (Wierzchos),e,21.0351,321.2623,56.6896,5.622046,0.0739371,0.58601306,43.1750,05/21.0/2023,2000,g 16.0,4.0
# From MPEC 2022-Y15
P/2021 R5 (Rankin),e,7.8546,219.9577,167.4434,4.793836,0.0939030,0.30667488,46.3454,05/21.0/2023,2000,g 12.0,4.0
# From MPEC 2021-W31
P/2021 R6 (Groeller),e,34.9251,176.1171,220.7953,6.280386,0.0626217,0.59343069,35.4378,05/21.0/2023,2000,g 14.5,4.0
# From MPEC 2022-X67
C/2021 R7 (PANSTARRS),e,158.8512,170.1484,140.2820,875.3766,0.0000381,0.99354468,0.0000,04/16.5759/2021,2000,g 10.5,4.0
# From MPEC 2021-Y10
P/2021 R8 (Sheppard),e,2.2034,167.0269,190.8346,3.017880,0.1879971,0.29343780,111.0121,05/21.0/2023,2000,g 18.5,4.0
# From MPEC 2023-J29
C/2021 S1 (ATLAS),h,03/01.1274/2022,52.0711,299.8776,148.1982,1.002021,6.119468,2000,7.0,4.0
# From MPEC 2023-K53
C/2021 S3 (PANSTARRS),h,02/14.7297/2024,58.5334,215.6224,6.8679,1.000103,1.320037,2000,5.5,4.0
# From MPEC 2023-E68
C/2021 S4 (Tsuchinshan),e,17.4798,5.4960,72.8194,164.8015,0.0004659,0.95940547,359.8948,05/21.0/2023,2000,g  6.5,4.0
# From MPEC 2022-OB6
C/2021 T1 (Lemmon),e,140.3546,56.8292,51.5419,1357,0.0000197,0.99774580,0.0000,10/14.1273/2021,2000,g 12.5,4.0
# From MPEC 2023-A50
C/2021 T2 (Fuls),h,06/07.9179/2022,117.5357,223.2325,263.5986,1.000367,1.247679,2000,12.0,4.0
# From MPEC 2023-J29
C/2021 T4 (Lemmon),e,160.7765,257.8827,329.8174,10055,0.0000010,0.99985249,0.0000,07/31.5308/2023,2000,g  7.5,4.0
# From MPEC 2022-ED3
P/2021 U1 (Wierzchos),e,30.5541,246.7736,145.1191,8.523284,0.0396090,0.71297170,23.6420,05/21.0/2023,2000,g 14.5,4.0
# From MPEC 2022-L66
P/2021 U3 (Attard-Maury),e,69.9593,75.0952,335.2459,4.192884,0.1147981,0.54983182,65.7935,05/21.0/2023,2000,g 15.5,4.0
# From MPEC 2021-W31
C/2021 U4 (Leonard),e,152.8821,241.8093,237.3016,44.84669,0.0032818,0.96012701,1.6903,05/21.0/2023,2000,g 17.0,4.0
# From MPEC 2022-WQ9
C/2021 U5 (Catalina),e,39.0494,182.7525,321.4425,216.8938,0.0003086,0.98910825,0.0000,01/26.5806/2022,2000,g 13.0,4.0
# From MPEC 2022-CN4
C/2021 V1 (Rankin),e,71.4540,207.6538,195.1333,609.8552,0.0000654,0.99505780,0.0000,04/30.4405/2022,2000,g 13.0,4.0
# From MPEC 2023-K53
P/2021 V2 (Fuls),e,12.6941,232.2810,259.8322,9.061895,0.0361306,0.61414201,4.3206,05/21.0/2023,2000,g 10.0,4.0
# From MPEC 2023-G31
C/2021 X1 (Maury-Attard),h,05/27.4139/2023,140.1190,10.5873,334.6171,1.000973,3.233654,2000,7.0,4.0
# From MPEC 2023-A50
A/2021 X2,h,07/08.0486/2022,137.1614,228.8223,193.2820,1.000842,2.994328,2000,16.0,2.0
# From MPEC 2023-K53
C/2021 Y1 (ATLAS),h,04/30.7098/2023,77.1908,244.7707,245.8188,1.000857,2.032394,2000,7.0,4.0
# From MPEC 2022-YN2
C/2022 A1 (Sarneczky),e,116.5088,285.5246,201.2246,351.0723,0.0001498,0.99643075,0.0000,01/31.1280/2022,2000,g 18.0,4.0
# From MPEC 2023-K53
C/2022 A2 (PANSTARRS),h,02/18.2733/2023,108.1464,171.5802,88.3705,1.000410,1.735326,2000,9.5,4.0
# From MPEC 2023-K53
C/2022 A3 (Lemmon-ATLAS),e,88.3453,325.4821,234.8470,912.7081,0.0000357,0.99594234,0.0000,09/28.8453/2023,2000,g  8.0,4.0
# From MPEC 2022-K19
P/2022 B1 (Wierzchos),e,10.9899,148.8410,325.4750,5.466419,0.0771169,0.65312378,34.6743,05/21.0/2023,2000,g 16.5,4.0
# From MPEC 2022-YB4
A/2022 B3,e,132.0507,286.1823,150.6878,854.8314,0.0000394,0.99567313,0.0000,01/17.5296/2022,2000,g 16.5,2.0
# From MPEC 2022-GA9
C/2022 B4 (Bok),e,20.0437,340.6467,152.9383,381.0121,0.0001325,0.99638127,0.0000,01/29.9100/2022,2000,g 21.0,4.0
# From MPEC 2023-J29
P/2022 BV9 (Lemmon),e,11.9333,337.3019,16.2355,4.361113,0.1082201,0.23474004,101.6227,05/21.0/2023,2000,g  9.5,4.0
# From MPEC 2023-J29
P/2022 C1 (PANSTARRS),e,4.7622,113.1364,9.3362,7.222848,0.0507740,0.44829330,28.5678,05/21.0/2023,2000,g 12.0,4.0
# From MPEC 2022-OB6
P/2022 C2 (PANSTARRS),e,9.9803,135.2643,89.2803,6.042067,0.0663630,0.44220476,19.0844,05/21.0/2023,2000,g 12.5,4.0
# From MPEC 2022-OB6
